413P/Larson,e,15.9780,39.0206,186.0755,3.710838,0.1378784,0.42326980,33.6030,03/21.0/2022,2000,g 14.0,4.0
# From MPEC 2021-BE3
414P/STEREO,e,23.3850,257.7895,210.7230,2.794015,0.2110382,0.81161847,88.5624,03/21.0/2022,2000,g 19.0,4.0
# From MPEC 2022-CN4
415P/Tenagra,e,31.7923,160.2946,346.1792,4.114528,0.1180930,0.19468763,47.1521,03/21.0/2022,2000,g 12.0,4.0
# From MPEC 2021-L04
416P/Scotti,e,3.3613,355.8117,134.4782,4.011979,0.1226496,0.45429005,48.8910,03/21.0/2022,2000,g 15.5,4.0
# From MPEC 2021-W31
417P/NEOWISE,e,8.1257,111.2979,129.4910,3.350496,0.1607091,0.55508356,53.4657,03/21.0/2022,2000,g 16.5,4.0
# From MPEC 2021-L04
418P/LINEAR,e,5.7972,277.6565,307.1098,5.080265,0.0860745,0.66478531,13.2916,03/21.0/2022,2000,g 13.0,4.0
# From MPEC 2022-CN4
419P/PANSTARRS,e,2.8029,40.3900,187.5077,3.520581,0.1492047,0.27759108,21.5628,03/21.0/2022,2000,g 12.5,4.0
# From MPEC 2021-S45
420P/Hill,e,14.5040,173.9527,157.1042,5.528639,0.0758188,0.49564107,355.2569,03/21.0/2022,2000,g 11.5,4.0
# From MPEC 2021-W31
421P/McNaught,e,10.0796,55.3482,259.8336,5.075334,0.0862000,0.67549230,36.1342,03/21.0/2022,2000,g 14.0,4.0
# From MPEC 2022-A21
422P/Christensen,e,39.5433,36.0386,305.1564,6.321262,0.0620152,0.50876703,4.1048,03/21.0/2022,2000,g 11.0,4.0
# From MPEC 2022-A21
423P/Lemmon,e,8.3459,33.3062,80.3077,6.166031,0.0643718,0.12099831,11.8043,03/21.0/2022,2000,g  8.0,4.0
# From MPEC 2022-CN4
424P/LaSagra,e,8.6856,51.1779,312.4756,4.413864,0.1062859,0.69126245,14.9190,03/21.0/2022,2000,g 17.0,4.0
# From MPEC 2022-ED3
425P/Kowalski,e,16.4206,210.0859,200.7497,6.331037,0.0618717,0.54349350,11.2312,03/21.0/2022,2000,g 12.0,4.0
# From MPEC 2021-Y10
426P/PANSTARRS,e,17.7736,280.5221,119.1418,3.186097,0.1733068,0.16130521,266.0502,03/21.0/2022,2000,g 13.5,4.0
# From MPEC 2022-C56
428P/Gibbs,e,8.5149,299.3367,36.8202,3.484300,0.1515412,0.51949888,47.0285,03/21.0/2022,2000,g 15.0,4.0
# From MPEC 2022-ED3
429P/LINEAR-Hill,e,7.5220,322.0732,75.5373,3.550525,0.1473212,0.49127728,11.4705,03/21.0/2022,2000,g 15.5,4.0
# From MPEC 2022-CN4
430P/Scotti,e,4.4749,54.6722,94.5003,3.106845,0.1799802,0.49961430,19.5782,03/21.0/2022,2000,g 16.5,4.0
# From MPEC 2022-ED3
431P/Scotti,e,22.3922,202.8464,199.8564,3.472317,0.1523264,0.47767391,5.4278,03/21.0/2022,2000,g 14.0,4.0
# From MPEC 2021-U31
432P/PANSTARRS,e,10.0692,239.1431,105.2405,3.035612,0.1863523,0.24205906,37.7612,03/21.0/2022,2000,g 17.0,4.0
# From MPEC 2022-ED3
434P/Tenagra,e,6.3397,288.9675,128.0506,4.127825,0.1175228,0.27431771,17.1809,03/21.0/2022,2000,g 13.0,4.0
# From MPEC 2021-W31
435P/PANSTARRS,e,18.8826,98.5498,244.1505,3.018377,0.1879507,0.31872442,44.4571,03/21.0/2022,2000,g 17.0,4.0
# From MPEC 2022-C56
436P/Garradd,e,20.2104,87.1897,282.5960,5.929108,0.0682684,0.66982902,6.9974,03/21.0/2022,2000,g 14.5,4.0
# From MPEC 2021-Y10
437P/PANSTARRS,e,3.6897,245.8689,206.7100,4.558478,0.1012685,0.25409204,344.7673,03/21.0/2022,2000,g 13.0,4.0
# From MPEC 2021-W47
438P/Christensen,e,8.2881,260.1557,58.9412,3.846895,0.1306287,0.41576926,93.3520,03/21.0/2022,2000,g 14.5,4.0
# From MPEC 2022-C56
439P/LINEAR,e,7.1143,56.4172,341.9973,3.487523,0.1513312,0.46947067,31.3100,03/21.0/2022,2000,g 13.5,4.0
# From MPEC 2022-ED3
440P/Kobayashi,e,12.3395,328.8822,183.3196,8.584778,0.0391842,0.76047926,359.6492,03/21.0/2022,2000,g 15.5,4.0
# From MPC107687
1I/`Oumuamua,h,09/09.4886/2017,122.6778,24.5997,241.6845,1.199252,0.255240,2000,23.0,2.0
# From MPEC 2020-K19
2I/Borisov,h,12/08.5549/2019,44.0527,308.1480,209.1251,3.356636,2.006548,2000,11.0,4.0
